{
  "norad_id": 48221,
  "name": "ONEWEB-0187",
  "history": [
    {
      "epoch": "2026-03-28T15:57:58.442400",
      "apogee_km": 1207.0556917003369,
      "perigee_km": 1204.5176558036792,
      "latitude_deg": -23.466264836889565,
      "longitude_deg": 145.96493600006215,
      "semi_major_axis_km": 7583.923673752008,
      "eccentricity": 0.00016733,
      "inclination_deg": 87.894,
      "raan_deg": 305.7948,
      "arg_perigee_deg": 75.4544,
      "mean_anomaly_deg": 284.6772,
      "mean_motion_rev_day": 13.14503757
    },
    {
      "epoch": "2026-03-29T02:55:37.832160",
      "apogee_km": 1207.0494712334385,
      "perigee_km": 1204.5209915614896,
      "latitude_deg": 57.59025721469764,
      "longitude_deg": -170.19129759981297,
      "semi_major_axis_km": 7583.922231397463,
      "eccentricity": 0.0001667,
      "inclination_deg": 87.894,
      "raan_deg": 305.7036,
      "arg_perigee_deg": 75.7058,
      "mean_anomaly_deg": 284.4257,
      "mean_motion_rev_day": 13.14504132
    }
  ]
}